{"n":43623,"c":2,"l1":"1 43623U 2018-072 26134.03606904 -0.00000037  00000-0  00000-0 0  9994","l2":"2 43623  56.5980  63.7808 0006648 347.7176  12.2477  1.86231503 52014","nm":"BEIDOU-3 M14"},{"n":43647,"c":2,"l1":"1 43647U 2018-078 26137.41361259 -0.00000055  00000-0  00000-0 0  9992","l2":"2 43647  54.1190 301.0643 0007805  40.0451 319.9850  1.86232182 51584","nm":"BEIDOU-3 M16"},{"n":43648,"c":2,"l1":"1 43648U 2018-078 26137.00596727 -0.00000055  00000-0  00000-0 0  9998","l2":"2 43648  54.1154 301.0790 0004856  54.1463 305.8719  1.86232227 51599","nm":"BEIDOU-3 M15"},{"n":43683,"c":2,"l1":"1 43683U 2018-085 26137.78674287 -0.00000103  00000-0  00000-0 0  9992","l2":"2 43683   2.7907  98.2144 0007827 340.8501 239.6185  1.00271475 27756","nm":"BEIDOU-3 G1"},{"n":43706,"c":2,"l1":"1 43706U 2018-093 26137.16954242  0.00000085  00000-0  00000-0 0  9999","l2":"2 43706  54.1670 183.3489 0009701 290.7697  70.9293  1.86228297 50963","nm":"BEIDOU-3 M17"},{"n":43707,"c":2,"l1":"1 43707U 2018-093 26137.03010742  0.00000087  00000-0  00000-0 0  9996","l2":"2 43707  54.1678 183.3460 0007453 321.6467  38.3939  1.86226368 50953","nm":"BEIDOU-3 M18"},{"n":44204,"c":2,"l1":"1 44204U 2019-023 26132.76772565 -0.00000227  00000-0  00000-0 0  9993","l2":"2 44204  58.6468  38.0171 0023857 234.3090 349.8662  1.00250503  6852","nm":"BEIDOU-3 IGSO-1"},{"n":44231,"c":2,"l1":"1 44231U 2019-027 26137.84110354 -0.00000242  00000-0  00000-0 0  9990","l2":"2 44231   1.5808  74.4325 0010730 280.3796 328.0581  1.00271167 25772","nm":"BEIDOU-2 G8"},{"n":44337,"c":2,"l1":"1 44337U 2019-035 26132.65390358 -0.00000046  00000-0  00000-0 0  9996","l2":"2 44337  55.2385 159.1745 0039680 215.7907 210.7620  1.00277740 25317","nm":"BEIDOU-3 IGSO-2"},{"n":44542,"c":2,"l1":"1 44542U 2019-061 26137.09914734  0.00000086  00000-0  00000-0 0  9999","l2":"2 44542  54.3946 183.7768 0008065   2.5700 357.5278  1.86229147 45214","nm":"BEIDOU-3 M24"},{"n":44543,"c":2,"l1":"1 44543U 2019-061 26137.27783897  0.00000084  00000-0  00000-0 0  9992","l2":"2 44543  54.3932 183.7392 0005281 342.0693  49.6204  1.86227335 45229","nm":"BEIDOU-3 M23"},{"n":44709,"c":2,"l1":"1 44709U 2019-073 26120.85038409 -0.00000212  00000-0  00000-0 0  9991","l2":"2 44709  54.8842 281.4069 0042405 188.8195 170.9972  1.00251230 23983","nm":"BEIDOU-3 IGSO-3"},{"n":44793,"c":2,"l1":"1 44793U 2019-078 26136.93846773 -0.00000055  00000-0  00000-0 0  9991","l2":"2 44793  53.9657 300.9268 0006999  48.7957 311.2377  1.86227149 44063","nm":"BEIDOU-3 M22"},{"n":44794,"c":2,"l1":"1 44794U 2019-078 26136.54150291 -0.00000055  00000-0  00000-0 0  9992","l2":"2 44794  53.9390 300.9027 0004901  45.2623 314.7514  1.86227806 44065","nm":"BEIDOU-3 M21"},{"n":44864,"c":2,"l1":"1 44864U 2019-090 26134.37148075 -0.00000039  00000-0  00000-0 0  9992","l2":"2 44864  56.5302  63.9086 0019040 296.9236 245.2774  1.86231675 43605","nm":"BEIDOU-3 M19"},{"n":44865,"c":2,"l1":"1 44865U 2019-090 26137.46466772 -0.00000044  00000-0  00000-0 0  9999","l2":"2 44865  56.5345  63.8409 0016720 310.1463 235.4725  1.86231382 43640","nm":"BEIDOU-3 M20"},{"n":45344,"c":2,"l1":"1 45344U 2020-017 26137.82836351 -0.00000136  00000-0  00000-0 0  9999","l2":"2 45344   2.8031  46.8596 0002321   8.2353 198.6909  1.00271533 22955","nm":"BEIDOU-3 G2"},{"n":45807,"c":2,"l1":"1 45807U 2020-040 26137.83443020 -0.00000349  00000-0  00000-0 0  9993","l2":"2 45807   2.3726  67.3612 0003075 331.6444 247.4774  1.00272266 21768","nm":"BEIDOU-3 G3"},{"n":56564,"c":2,"l1":"1 56564U 2023-066 26137.84023690 -0.00000275  00000-0  00000-0 0  9992","l2":"2 56564   0.5261 324.2618 0003510 174.1104 179.6783  1.00274277 11086","nm":"BEIDOU-3 G4"},{"n":58654,"c":2,"l1":"1 58654U 2023-207 26137.15564156 -0.00000046  00000-0  00000-0 0  9998","l2":"2 58654  55.7267  63.3498 0004118 332.6037  27.3589  1.86229610 16267","nm":"BEIDOU-3 M28"},{"n":58655,"c":2,"l1":"1 58655U 2023-207 26137.49009756 -0.00000046  00000-0  00000-0 0  9996","l2":"2 58655  55.7291  63.3250 0004262 311.3837  48.5651  1.86229587 16250","nm":"BEIDOU-3 M26"},{"n":61186,"c":2,"l1":"1 61186U 2024-168 26136.77334515 -0.00000055  00000-0  00000-0 0  9990","l2":"2 61186  54.5026 303.3336 0003040 312.6101  44.0475  1.86229807 11197","nm":"BEIDOU-3 M25"},{"n":61187,"c":2,"l1":"1 61187U 2024-168 26136.57389727 -0.00000055  00000-0  00000-0 0  9994","l2":"2 61187  54.4980 303.3235 0002214  45.5930 312.3649  1.86229905  8669","nm":"BEIDOU-3 M27"}